{
    "links": {
        "self": "http://www.neowsapp.com/rest/v1/neo/54054409?api_key=iIulBulltgU6a56xZRHN4H3l9WmuAYTsLGpBGhQ2"
    },
    "id": "54054409",
    "neo_reference_id": "54054409",
    "name": "(2020 RV8)",
    "designation": "2020 RV8",
    "nasa_jpl_url": "http://ssd.jpl.nasa.gov/sbdb.cgi?sstr=54054409",
    "absolute_magnitude_h": 23.396,
    "estimated_diameter": {
        "kilometers": {
            "estimated_diameter_min": 0.0556358819,
            "estimated_diameter_max": 0.1244056139
        },
        "meters": {
            "estimated_diameter_min": 55.6358819056,
            "estimated_diameter_max": 124.4056139291
        },
        "miles": {
            "estimated_diameter_min": 0.0345705236,
            "estimated_diameter_max": 0.0773020407
        },
        "feet": {
            "estimated_diameter_min": 182.5324267913,
            "estimated_diameter_max": 408.1549144033
        }
    },
    "is_potentially_hazardous_asteroid": false,
    "close_approach_data": [
        {
            "close_approach_date": "2020-09-07",
            "close_approach_date_full": "2020-Sep-07 10:14",
            "epoch_date_close_approach": 1599473640000,
            "relative_velocity": {
                "kilometers_per_second": "6.0206712537",
                "kilometers_per_hour": "21674.4165134192",
                "miles_per_hour": "13467.6395274632"
            },
            "miss_distance": {
                "astronomical": "0.2008665539",
                "lunar": "78.1370894671",
                "kilometers": "30049208.617680193",
                "miles": "18671712.4162169434"
            },
            "orbiting_body": "Earth"
        },
        {
            "close_approach_date": "2152-09-26",
            "close_approach_date_full": "2152-Sep-26 19:01",
            "epoch_date_close_approach": 5766663660000,
            "relative_velocity": {
                "kilometers_per_second": "10.3992535857",
                "kilometers_per_hour": "37437.3129085589",
                "miles_per_hour": "23262.0903458765"
            },
            "miss_distance": {
                "astronomical": "0.4333872429",
                "lunar": "168.5876374881",
                "kilometers": "64833808.423012623",
                "miles": "40285860.4738872774"
            },
            "orbiting_body": "Earth"
        }
    ],
    "orbital_data": {
        "orbit_id": "5",
        "orbit_determination_date": "2020-10-14 07:42:01",
        "first_observation_date": "2020-09-14",
        "last_observation_date": "2020-10-13",
        "data_arc_in_days": 29,
        "observations_used": 30,
        "orbit_uncertainty": "7",
        "minimum_orbit_intersection": ".15821",
        "jupiter_tisserand_invariant": "3.384",
        "epoch_osculation": "2459000.5",
        "eccentricity": ".5023324382748318",
        "semi_major_axis": "2.335787710521375",
        "inclination": "3.987196471305673",
        "ascending_node_longitude": "338.8812761138573",
        "orbital_period": "1303.912595536413",
        "perihelion_distance": "1.162445774602786",
        "perihelion_argument": "14.73672625820442",
        "aphelion_distance": "3.509129646439964",
        "perihelion_time": "2459101.910737155193",
        "mean_anomaly": "332.0012940278021",
        "mean_motion": ".2760921255246411",
        "equinox": "J2000",
        "orbit_class": {
            "orbit_class_type": "AMO",
            "orbit_class_description": "Near-Earth asteroid orbits similar to that of 1221 Amor",
            "orbit_class_range": "1.017 AU < q (perihelion) < 1.3 AU"
        }
    },
    "is_sentry_object": false
}